2025-313AJ              
1 67280U 25313AJ  26022.48677576  .00008054  00000+0  36833-3 0  9991
2 67280  97.4154  99.5476 0014486 147.4997 212.7133 15.20706262  3798
2025-313AK              
1 67281U 25313AK  26022.48528676  .00008891  00000+0  40533-3 0  9999
2 67281  97.4039  99.5223 0013226 146.4171 213.7905 15.20798882  3792
2025-313AL              
1 67282U 25313AL  26022.47924515  .00008420  00000+0  37996-3 0  9998
2 67282  97.4088  99.5343 0012019 145.3811 214.8210 15.21180284  3791
HORS 5                  
1 67283U 25313AM  26022.47766654  .00012198  00000+0  54566-3 0  9996
2 67283  97.4095  99.5393 0011813 145.2957 214.9052 15.21379755  3794
LOBACHEVSKY (RS83S)     
1 67284U 25313AN  26022.15077637  .00007357  00000+0  33343-3 0  9999
2 67284  97.4080  99.2075 0011937 146.5863 213.6128 15.21079441  3744
NASBSAT-2               
1 67285U 25313AP  26022.47659551  .00011520  00000+0  51487-3 0  9992
2 67285  97.4073  99.5324 0011451 146.6141 213.5819 15.21430361  3791
2025-313AQ              
1 67286U 25313AQ  26022.47604938  .00012663  00000+0  56553-3 0  9990
2 67286  97.4095  99.5488 0011123 141.7900 218.4126 15.21435215  3790
LUCA (RS90S)            
1 67287U 25313AR  26022.47482554  .00013239  00000+0  58867-3 0  9999
2 67287  97.4094  99.5506 0011047 143.4436 216.7556 15.21573741  3794
2025-313AS              
1 67288U 25313AS  26022.47647584  .00008108  00000+0  36410-3 0  9995
2 67288  97.4083  99.5438 0012911 136.5458 223.6797 15.21350040  3794
NASBSAT-1               
1 67289U 25313AT  26022.47287872  .00017396  00000+0  76684-3 0  9992
2 67289  97.4095  99.5538 0010878 144.0285 216.1685 15.21811081  3791
SAKHACUBE-CHOLBON (RS1*)
1 67290U 25313AU  26022.47348366  .00013674  00000+0  60609-3 0  9995
2 67290  97.4093  99.5525 0010769 142.9738 217.2243 15.21678132  3796
QMR-KWT-2 (RS95S)       
1 67291U 25313AV  26022.47261060  .00018496  00000+0  81498-3 0  9997
2 67291  97.4093  99.5539 0010595 142.9110 217.2860 15.21815004  3799
