CCSDS_OMM_VERS = 2.0
CREATION_DATE  = 
ORIGINATOR     = 

OBJECT_NAME    = 2025-313AJ
OBJECT_ID      = 2025-313AJ
CENTER_NAME    = EARTH
REF_FRAME      = TEME
TIME_SYSTEM    = UTC
MEAN_ELEMENT_THEORY = SGP/SGP4

EPOCH          = 2026-01-22T11:40:57.425664
MEAN_MOTION    = 15.20706262
ECCENTRICITY   = .0014486
INCLINATION    = 97.4154
RA_OF_ASC_NODE = 99.5476
ARG_OF_PERICENTER = 147.4997
MEAN_ANOMALY   = 212.7133

EPHEMERIS_TYPE = 0
CLASSIFICATION_TYPE = U
NORAD_CAT_ID   = 67280
ELEMENT_SET_NO = 999
REV_AT_EPOCH   = 379
BSTAR          = .36833E-3
MEAN_MOTION_DOT = .8054E-4
MEAN_MOTION_DDOT = 0

CCSDS_OMM_VERS = 2.0
CREATION_DATE  = 
ORIGINATOR     = 

OBJECT_NAME    = 2025-313AK
OBJECT_ID      = 2025-313AK
CENTER_NAME    = EARTH
REF_FRAME      = TEME
TIME_SYSTEM    = UTC
MEAN_ELEMENT_THEORY = SGP/SGP4

EPOCH          = 2026-01-22T11:38:48.776064
MEAN_MOTION    = 15.20798882
ECCENTRICITY   = .0013226
INCLINATION    = 97.4039
RA_OF_ASC_NODE = 99.5223
ARG_OF_PERICENTER = 146.4171
MEAN_ANOMALY   = 213.7905

EPHEMERIS_TYPE = 0
CLASSIFICATION_TYPE = U
NORAD_CAT_ID   = 67281
ELEMENT_SET_NO = 999
REV_AT_EPOCH   = 379
BSTAR          = .40533E-3
MEAN_MOTION_DOT = .8891E-4
MEAN_MOTION_DDOT = 0

CCSDS_OMM_VERS = 2.0
CREATION_DATE  = 
ORIGINATOR     = 

OBJECT_NAME    = 2025-313AL
OBJECT_ID      = 2025-313AL
CENTER_NAME    = EARTH
REF_FRAME      = TEME
TIME_SYSTEM    = UTC
MEAN_ELEMENT_THEORY = SGP/SGP4

EPOCH          = 2026-01-22T11:30:06.780960
MEAN_MOTION    = 15.21180284
ECCENTRICITY   = .0012019
INCLINATION    = 97.4088
RA_OF_ASC_NODE = 99.5343
ARG_OF_PERICENTER = 145.3811
MEAN_ANOMALY   = 214.8210

EPHEMERIS_TYPE = 0
CLASSIFICATION_TYPE = U
NORAD_CAT_ID   = 67282
ELEMENT_SET_NO = 999
REV_AT_EPOCH   = 379
BSTAR          = .37996E-3
MEAN_MOTION_DOT = .842E-4
MEAN_MOTION_DDOT = 0

CCSDS_OMM_VERS = 2.0
CREATION_DATE  = 
ORIGINATOR     = 

OBJECT_NAME    = HORS 5
OBJECT_ID      = 2025-313AM
CENTER_NAME    = EARTH
REF_FRAME      = TEME
TIME_SYSTEM    = UTC
MEAN_ELEMENT_THEORY = SGP/SGP4

EPOCH          = 2026-01-22T11:27:50.389056
MEAN_MOTION    = 15.21379755
ECCENTRICITY   = .0011813
INCLINATION    = 97.4095
RA_OF_ASC_NODE = 99.5393
ARG_OF_PERICENTER = 145.2957
MEAN_ANOMALY   = 214.9052

EPHEMERIS_TYPE = 0
CLASSIFICATION_TYPE = U
NORAD_CAT_ID   = 67283
ELEMENT_SET_NO = 999
REV_AT_EPOCH   = 379
BSTAR          = .54566E-3
MEAN_MOTION_DOT = .12198E-3
MEAN_MOTION_DDOT = 0

CCSDS_OMM_VERS = 2.0
CREATION_DATE  = 
ORIGINATOR     = 

OBJECT_NAME    = LOBACHEVSKY (RS83S)
OBJECT_ID      = 2025-313AN
CENTER_NAME    = EARTH
REF_FRAME      = TEME
TIME_SYSTEM    = UTC
MEAN_ELEMENT_THEORY = SGP/SGP4

EPOCH          = 2026-01-22T03:37:07.078368
MEAN_MOTION    = 15.21079441
ECCENTRICITY   = .00119376
INCLINATION    = 97.4080
RA_OF_ASC_NODE = 99.2075
ARG_OF_PERICENTER = 146.5863
MEAN_ANOMALY   = 213.6128

EPHEMERIS_TYPE = 0
CLASSIFICATION_TYPE = U
NORAD_CAT_ID   = 67284
ELEMENT_SET_NO = 999
REV_AT_EPOCH   = 374
BSTAR          = .33343126E-3
MEAN_MOTION_DOT = .7357E-4
MEAN_MOTION_DDOT = 0

CCSDS_OMM_VERS = 2.0
CREATION_DATE  = 
ORIGINATOR     = 

OBJECT_NAME    = NASBSAT-2
OBJECT_ID      = 2025-313AP
CENTER_NAME    = EARTH
REF_FRAME      = TEME
TIME_SYSTEM    = UTC
MEAN_ELEMENT_THEORY = SGP/SGP4

EPOCH          = 2026-01-22T11:26:17.852064
MEAN_MOTION    = 15.21430361
ECCENTRICITY   = .0011451
INCLINATION    = 97.4073
RA_OF_ASC_NODE = 99.5324
ARG_OF_PERICENTER = 146.6141
MEAN_ANOMALY   = 213.5819

EPHEMERIS_TYPE = 0
CLASSIFICATION_TYPE = U
NORAD_CAT_ID   = 67285
ELEMENT_SET_NO = 999
REV_AT_EPOCH   = 379
BSTAR          = .51487E-3
MEAN_MOTION_DOT = .1152E-3
MEAN_MOTION_DDOT = 0

CCSDS_OMM_VERS = 2.0
CREATION_DATE  = 
ORIGINATOR     = 

OBJECT_NAME    = 2025-313AQ
OBJECT_ID      = 2025-313AQ
CENTER_NAME    = EARTH
REF_FRAME      = TEME
TIME_SYSTEM    = UTC
MEAN_ELEMENT_THEORY = SGP/SGP4

EPOCH          = 2026-01-22T11:25:30.666432
MEAN_MOTION    = 15.21435215
ECCENTRICITY   = .0011123
INCLINATION    = 97.4095
RA_OF_ASC_NODE = 99.5488
ARG_OF_PERICENTER = 141.7900
MEAN_ANOMALY   = 218.4126

EPHEMERIS_TYPE = 0
CLASSIFICATION_TYPE = U
NORAD_CAT_ID   = 67286
ELEMENT_SET_NO = 999
REV_AT_EPOCH   = 379
BSTAR          = .56553E-3
MEAN_MOTION_DOT = .12663E-3
MEAN_MOTION_DDOT = 0

CCSDS_OMM_VERS = 2.0
CREATION_DATE  = 
ORIGINATOR     = 

OBJECT_NAME    = LUCA (RS90S)
OBJECT_ID      = 2025-313AR
CENTER_NAME    = EARTH
REF_FRAME      = TEME
TIME_SYSTEM    = UTC
MEAN_ELEMENT_THEORY = SGP/SGP4

EPOCH          = 2026-01-22T11:23:44.926656
MEAN_MOTION    = 15.21573741
ECCENTRICITY   = .0011047
INCLINATION    = 97.4094
RA_OF_ASC_NODE = 99.5506
ARG_OF_PERICENTER = 143.4436
MEAN_ANOMALY   = 216.7556

EPHEMERIS_TYPE = 0
CLASSIFICATION_TYPE = U
NORAD_CAT_ID   = 67287
ELEMENT_SET_NO = 999
REV_AT_EPOCH   = 379
BSTAR          = .58867E-3
MEAN_MOTION_DOT = .13239E-3
MEAN_MOTION_DDOT = 0

CCSDS_OMM_VERS = 2.0
CREATION_DATE  = 
ORIGINATOR     = 

OBJECT_NAME    = 2025-313AS
OBJECT_ID      = 2025-313AS
CENTER_NAME    = EARTH
REF_FRAME      = TEME
TIME_SYSTEM    = UTC
MEAN_ELEMENT_THEORY = SGP/SGP4

EPOCH          = 2026-01-22T11:26:07.512576
MEAN_MOTION    = 15.21350040
ECCENTRICITY   = .0012911
INCLINATION    = 97.4083
RA_OF_ASC_NODE = 99.5438
ARG_OF_PERICENTER = 136.5458
MEAN_ANOMALY   = 223.6797

EPHEMERIS_TYPE = 0
CLASSIFICATION_TYPE = U
NORAD_CAT_ID   = 67288
ELEMENT_SET_NO = 999
REV_AT_EPOCH   = 379
BSTAR          = .3641E-3
MEAN_MOTION_DOT = .8108E-4
MEAN_MOTION_DDOT = 0

CCSDS_OMM_VERS = 2.0
CREATION_DATE  = 
ORIGINATOR     = 

OBJECT_NAME    = NASBSAT-1
OBJECT_ID      = 2025-313AT
CENTER_NAME    = EARTH
REF_FRAME      = TEME
TIME_SYSTEM    = UTC
MEAN_ELEMENT_THEORY = SGP/SGP4

EPOCH          = 2026-01-22T11:20:56.721408
MEAN_MOTION    = 15.21811081
ECCENTRICITY   = .0010878
INCLINATION    = 97.4095
RA_OF_ASC_NODE = 99.5538
ARG_OF_PERICENTER = 144.0285
MEAN_ANOMALY   = 216.1685

EPHEMERIS_TYPE = 0
CLASSIFICATION_TYPE = U
NORAD_CAT_ID   = 67289
ELEMENT_SET_NO = 999
REV_AT_EPOCH   = 379
BSTAR          = .76684E-3
MEAN_MOTION_DOT = .17396E-3
MEAN_MOTION_DDOT = 0

CCSDS_OMM_VERS = 2.0
CREATION_DATE  = 
ORIGINATOR     = 

OBJECT_NAME    = SAKHACUBE-CHOLBON (RS18S)
OBJECT_ID      = 2025-313AU
CENTER_NAME    = EARTH
REF_FRAME      = TEME
TIME_SYSTEM    = UTC
MEAN_ELEMENT_THEORY = SGP/SGP4

EPOCH          = 2026-01-22T11:21:48.988224
MEAN_MOTION    = 15.21678132
ECCENTRICITY   = .0010769
INCLINATION    = 97.4093
RA_OF_ASC_NODE = 99.5525
ARG_OF_PERICENTER = 142.9738
MEAN_ANOMALY   = 217.2243

EPHEMERIS_TYPE = 0
CLASSIFICATION_TYPE = U
NORAD_CAT_ID   = 67290
ELEMENT_SET_NO = 999
REV_AT_EPOCH   = 379
BSTAR          = .60609E-3
MEAN_MOTION_DOT = .13674E-3
MEAN_MOTION_DDOT = 0

CCSDS_OMM_VERS = 2.0
CREATION_DATE  = 
ORIGINATOR     = 

OBJECT_NAME    = QMR-KWT-2 (RS95S)
OBJECT_ID      = 2025-313AV
CENTER_NAME    = EARTH
REF_FRAME      = TEME
TIME_SYSTEM    = UTC
MEAN_ELEMENT_THEORY = SGP/SGP4

EPOCH          = 2026-01-22T11:20:33.555840
MEAN_MOTION    = 15.21815004
ECCENTRICITY   = .0010595
INCLINATION    = 97.4093
RA_OF_ASC_NODE = 99.5539
ARG_OF_PERICENTER = 142.9110
MEAN_ANOMALY   = 217.2860

EPHEMERIS_TYPE = 0
CLASSIFICATION_TYPE = U
NORAD_CAT_ID   = 67291
ELEMENT_SET_NO = 999
REV_AT_EPOCH   = 379
BSTAR          = .81498E-3
MEAN_MOTION_DOT = .18496E-3
MEAN_MOTION_DDOT = 0

